STARLINK-5297           
1 54158C 22141B   26181.25395833 -.00027003  00000+0 -16939-2 0  1815
2 54158  53.1585 228.7597 0001140  86.3998  96.9673 15.08838839    15
STARLINK-5294           
1 54159C 22141C   26181.22687500 -.00021862  00000+0 -13712-2 0  1811
2 54159  53.1580 228.8487 0001084  76.9871 339.1727 15.08840426    19
STARLINK-5233           
1 54160C 22141D   26181.24631944 -.00030878  00000+0 -19368-2 0  1816
2 54160  53.1573 183.6278 0001262  88.2875 181.1538 15.08842602    10
STARLINK-5269           
1 54161C 22141E   26181.29354167 -.00033077  00000+0 -20744-2 0  1815
2 54161  53.1581 228.5523 0001218  81.4612 331.8269 15.08849456    16
STARLINK-5273           
1 54162C 22141F   26181.27131944 -.00029459  00000+0 -18477-2 0  1819
2 54162  53.1571 228.5615 0001272  76.3280 261.3581 15.08844417    18
STARLINK-5161           
1 54163C 22141G   26181.28868056  .00718180  00000+0  26630-1 0  1815
2 54163  53.1593 217.8734 0001331  83.1005 319.1315 15.26719111    12
STARLINK-5278           
1 54164C 22141H   26181.25465278  .00689310  00000+0  26896-1 0  1818
2 54164  53.1594 218.2040 0001331  85.1879  40.2839 15.25044879    14
STARLINK-5279           
1 54165C 22141J   26181.28798611 -.00032975  00000+0 -20677-2 0  1815
2 54165  53.1579 228.4486 0001290  84.6351   3.7315 15.08854453    19
STARLINK-5280           
1 54166C 22141K   26181.27618056  .00706340  00000+0  29187-1 0  1815
2 54166  53.1594 218.1157 0001158  81.1071 156.4657 15.23117861    19
STARLINK-5243           
1 54167C 22141L   26181.26090278 -.00038772  00000+0 -24315-2 0  1813
2 54167  53.1565 228.3725 0001158  89.4048 311.8960 15.08854181    17
STARLINK-5245           
1 54168C 22141M   26181.24909722  .00727930  00000+0  30903-1 0  1813
2 54168  53.1595 218.2661 0001479  93.2821 343.1796 15.22194941    18
STARLINK-5282           
1 54169C 22141N   26181.24631944  .00666810  00000+0  31555-1 0  1815
2 54169  53.1593 217.9698 0001499  83.6396 136.6392 15.18511223    13
STARLINK-5155           
1 54170C 22141P   26181.26437500  .00693470  00000+0  27917-1 0  1810
2 54170  53.1593 217.9886 0001215  81.6369 185.5426 15.24000244    12
STARLINK-5117           
1 54172C 22141R   26181.25395833  .00732670  00000+0  28208-1 0  1813
2 54172  53.1594 217.8671 0001229  79.5460 216.8871 15.25469138    13
STARLINK-5242           
1 54173C 22141S   26181.27409722  .00722870  00000+0  32277-1 0  1811
2 54173  53.1592 217.8029 0001289  86.7298 303.0493 15.20480715    12
STARLINK-5248           
1 54174C 22141T   26181.22826389 -.00014880  00000+0 -93333-3 0  1818
2 54174  53.1578 163.4833 0001502  71.0272 230.4429 15.08834636    16
STARLINK-5256           
1 54175C 22141U   26181.24840278  .00717840  00000+0  28782-1 0  1812
2 54175  53.1593 218.0944 0001059  85.1994  76.7818 15.24124185    10
STARLINK-5154           
1 54176C 22141V   26181.23868056  .00732340  00000+0  27825-1 0  1815
2 54176  53.1606 217.7958 0001272  82.3272 202.8256 15.25907165    18
STARLINK-5186           
1 54177C 22141W   26181.28173611  .00722710  00000+0  28739-1 0  1812
2 54177  53.1593 217.8593 0001234  84.7984 301.6732 15.24396877    12
STARLINK-5164           
1 54178C 22141X   26181.26437500  .00702860  00000+0  29655-1 0  1813
2 54178  53.1593 217.8037 0001254  86.8663 263.0546 15.22416270    17
STARLINK-5122           
1 54179C 22141Y   26181.27201389  .00716170  00000+0  28525-1 0  1813
2 54179  53.1592 217.7630 0001343 101.2101 304.2228 15.24345970    18
STARLINK-5227           
1 54181C 22141AA  26181.25395833  .00724460  00000+0  30871-1 0  1810
2 54181  53.1592 217.9765 0001167  82.8945 155.6513 15.22070948    19
STARLINK-5231           
1 54182C 22141AB  26181.25326389 -.00025157  00000+0 -15777-2 0  1819
2 54182  53.1568 188.2628 0001310  72.7061  67.1940 15.08845907    18
STARLINK-5239           
1 54183C 22141AC  26181.23798611  .00599470  00000+0  26688-1 0  1813
2 54183  53.1593 217.9597 0001187  82.0008 115.3154 15.20644177    12
STARLINK-5162           
1 54184C 22141AD  26181.24076389  .00719740  00000+0  33609-1 0  1811
2 54184  53.1593 218.8107 0001416  85.8150  36.7057 15.18945078    13
STARLINK-5235           
1 54185C 22141AE  26181.21715278  .00713190  00000+0  30466-1 0  1817
2 54185  53.1593 218.1106 0001188  87.6906 326.0761 15.21992811    19
STARLINK-5240           
1 54187C 22141AG  26181.29354167  .00405950  00000+0  17537-1 0  1819
2 54187  53.1593 217.8527 0001181  82.4126 348.1408 15.21766024    12
STARLINK-5238           
1 54188C 22141AH  26181.22756944 -.00032634  00000+0 -20462-2 0  1811
2 54188  53.1567 208.9033 0001131  77.4528 332.4410 15.08857345    13
STARLINK-5281           
1 54190C 22141AK  26181.22340278 -.00032726  00000+0 -20521-2 0  1811
2 54190  53.1568 208.8823 0001200  82.9684 324.3090 15.08854003    16
STARLINK-4619           
1 54191C 22141AL  26181.21715278 -.00028912  00000+0 -18132-2 0  1814
2 54191  53.1572 209.0282 0001178  85.0894 228.1529 15.08847869    15
STARLINK-5268           
1 54192C 22141AM  26181.27062500 -.00031845  00000+0 -19976-2 0  1810
2 54192  53.1569 208.2768 0001172  61.4959  82.6409 15.08840270    15
STARLINK-5263           
1 54193C 22141AN  26181.26298611 -.00029757  00000+0 -18661-2 0  1813
2 54193  53.1567 208.6253 0000992  76.9797 225.4762 15.08850139    11
STARLINK-5271           
1 54194C 22141AP  26181.27756944 -.00043028  00000+0 -26986-2 0  1819
2 54194  53.1565 208.4810 0001127  82.3753 339.3827 15.08853209    19
STARLINK-5258           
1 54195C 22141AQ  26181.27618056 -.00030319  00000+0 -19014-2 0  1814
2 54195  53.1568 208.6057 0001114  77.6009 276.5381 15.08849453    18
STARLINK-5237           
1 54196C 22141AR  26181.23798611 -.00116040  00000+0 -72753-2 0  1812
2 54196  53.1562 208.5803 0000964  86.1855 160.5747 15.08901542    13
STARLINK-5246           
1 54198C 22141AT  26181.26854167 -.00038871  00000+0 -24379-2 0  1812
2 54198  53.1561 208.4039 0001053  84.8135 347.9561 15.08849998    11
STARLINK-5244           
1 54199C 22141AU  26181.24215278 -.00030529  00000+0 -19147-2 0  1814
2 54199  53.1564 208.6005 0001080  85.2714 164.0137 15.08846823    19
STARLINK-5250           
1 54200C 22141AV  26181.26298611 -.00035676  00000+0 -22377-2 0  1818
2 54200  53.1566 208.3490 0001107  86.9547 355.6826 15.08847122    17
STARLINK-5199           
1 54201C 22141AW  26181.29423611 -.00028255  00000+0 -17722-2 0  1815
2 54201  53.1562 208.4405 0001191  86.3376  45.9529 15.08841805    19
STARLINK-5205           
1 54202C 22141AX  26181.26090278 -.00033431  00000+0 -20971-2 0  1814
2 54202  53.1573 208.2806 0001139  83.6355  27.7565 15.08839942    11
STARLINK-5247           
1 54203C 22141AY  26181.27687500 -.00039776  00000+0 -24951-2 0  1816
2 54203  53.1567 208.3275 0000697  10.6845 127.4182 15.08845323    11
STARLINK-5241           
1 54204C 22141AZ  26181.22479167 -.00030762  00000+0 -19291-2 0  1817
2 54204  53.1576 208.3245 0000916  56.6913 278.4855 15.08851913    15
STARLINK-5249           
1 54205C 22141BA  26181.27409722 -.00028384  00000+0 -17800-2 0  1814
2 54205  53.1577 208.1823 0001138  80.6840 122.4132 15.08847897    12
STARLINK-5264           
1 54206C 22141BB  26181.22409722 -.00019897  00000+0 -12481-2 0  1819
2 54206  53.1572 173.5978 0001350  81.9776 141.7759 15.08834753    18
STARLINK-5262           
1 54207C 22141BC  26181.27479167 -.00027540  00000+0 -17273-2 0  1813
2 54207  53.1576 208.1398 0001166  81.4674 145.4465 15.08843106    18
STARLINK-5255           
1 54208C 22141BD  26181.22340278 -.00038632  00000+0 -24229-2 0  1812
2 54208  53.1571 183.8094 0001194  79.8185  25.0084 15.08850924    11
STARLINK-5259           
1 54209C 22141BE  26181.23937500 -.00032054  00000+0 -20104-2 0  1814
2 54209  53.1563 198.3502 0001209  76.7056 292.6857 15.08846488    18
STARLINK-5464           
1 54758C 22175A   26181.26645833  .00703250  00000+0  42775-1 0  1816
2 54758  53.1594 253.7606 0001277  91.9583 202.4984 15.09596730    14
STARLINK-5215           
1 54759C 22175B   26181.21576389  .00772280  00000+0  43509-1 0  1816
2 54759  53.1596 253.9942 0001246  82.7027 291.0192 15.12324574    13
STARLINK-5220           
1 54760C 22175C   26181.29909722 -.00016007  00000+0 -10040-2 0  1812
2 54760  53.1572 258.6103 0001209  90.2498  13.3661 15.08837883    18
STARLINK-5202           
1 54761C 22175D   26181.22548611 -.00001247  00000+0 -78217-4 0  1814
2 54761  53.1588 258.9822 0001243  91.1309 312.4100 15.08835602    14
STARLINK-5214           
1 54762C 22175E   26181.29354167  .00697200  00000+0  25649-1 0  1819
2 54762  53.1610 257.3315 0001194  80.5189 307.2396 15.26988291    16
STARLINK-5191           
1 54763C 22175F   26181.26715278 -.00003844  00000+0 -24110-3 0  1812
2 54763  53.1583 258.7158 0001049  92.4151 217.6141 15.08834532    16
STARLINK-5458           
1 54764C 22175G   26181.20951389  .00017834  00000+0  11198-2 0  1815
2 54764  53.1575 258.7517 0001494  94.6513  17.1025 15.08779985    11
STARLINK-5471           
1 54766C 22175J   26181.25395833  .00000358  00000+0  22466-4 0  1813
2 54766  53.1573 258.6171 0001336  94.0378 224.3400 15.08819008    14
STARLINK-5472           
1 54767C 22175K   26181.21854167  .00012887  00000+0  80826-3 0  1813
2 54767  53.1576 258.7363 0001296  91.7279  54.2462 15.08824735    12
STARLINK-5444           
1 54768C 22175L   26181.25812500  .00488200  00000+0  16821-1 0  1811
2 54768  53.1611 242.7303 0001240  88.3807   0.0770 15.29233941    15
STARLINK-5448           
1 54770C 22175N   26181.27131944  .00725920  00000+0  25404-1 0  1812
2 54770  53.1594 242.3294 0001294  87.8488 247.9352 15.28609251    19
STARLINK-5451           
1 54771C 22175P   26181.23937500  .00761230  00000+0  46725-1 0  1814
2 54771  53.1593 253.4892 0001245  96.8751 250.1197 15.09237500    11
